GOES 16                 
1 41866U 16071A   24288.17817965 -.00000250  00000+0  00000+0 0  9994
2 41866   0.0529 288.9784 0000543 338.3828 104.8196  1.00272643 28976
TIANLIAN 1-04           
1 41869U 16072A   24288.32340941  .00000031  00000+0  00000+0 0  9996
2 41869   0.1228  94.5274 0036432  68.5059 153.6592  1.00275876 29182
WGS F8 (USA 272)        
1 41879U 16075A   24288.50674670 -.00000204  00000+0  00000+0 0  9992
2 41879   0.0066 223.2395 0000206 339.2314 153.3291  1.00270901 28691
FENGYUN 4A              
1 41882U 16077A   24288.57271817 -.00000198  00000+0  00000+0 0  9993
2 41882   0.7566  85.7578 0007859 342.3721 248.1829  1.00263424 28804
ECHOSTAR 19             
1 41893U 16079A   24288.31684075 -.00000140  00000+0  00000+0 0  9990
2 41893   0.0183 183.2900 0001583  18.9479 198.1100  1.00271566 28577
JCSAT-110A (JCSAT-15)   
1 41903U 16082A   24288.52341212 -.00000353  00000+0  00000+0 0  9998
2 41903   0.0031 119.2546 0000740  90.2495 112.5758  1.00269626 28631
STAR ONE D1             
1 41904U 16082B   24288.19840920 -.00000213  00000+0  00000+0 0  9997
2 41904   0.0192 127.7244 0001921  82.1280 160.8347  1.00273322 28642
TJS-2                   
1 41911U 17001A   24288.49233918 -.00000008  00000+0  00000+0 0  9995
2 41911   0.0988  93.5825 0001007 177.8713 355.7871  1.00271099 28608
SBIRS GEO-4 (USA 273)   
1 41937U 17004A   24288.17392251 -.00000145  00000+0  00000+0 0  9999
2 41937   1.4343   8.9725 0002133 198.3488 141.7264  1.00270971 28475
HISPASAT 36W-1          
1 41942U 17006A   24288.18599889 -.00000246  00000+0  00000+0 0  9996
2 41942   0.0158  30.6671 0000988 160.4714 223.0647  1.00271075 28082
TELKOM 3S               
1 41944U 17007A   24288.51507748 -.00000365  00000+0  00000+0 0  9991
2 41944   0.0307  81.9781 0002672 133.8283 111.1974  1.00270758 28018
INTELSAT 32E (IS-32E)   
1 41945U 17007B   24288.11301936 -.00000270  00000+0  00000+0 0  9994
2 41945   0.0203 197.7578 0000833 301.8427 241.0719  1.00272848 28098
ECHOSTAR 23             
1 42070U 17014A   24287.95676644 -.00000059  00000+0  00000+0 0  9999
2 42070   0.0183 193.1952 0002161   9.7251  54.6421  1.00270343 27798
WGS F9 (USA 275)        
1 42075U 17016A   24288.39493873 -.00000099  00000+0  00000+0 0  9990
2 42075   0.0164 231.3929 0000190 303.5235 338.6905  1.00268381 27777
SES-10                  
1 42432U 17017A   24288.10832782 -.00000274  00000+0  00000+0 0  9998
2 42432   0.0431  49.4699 0002698 150.3055 155.5035  1.00271915 27616
CHINASAT 16 (SJ-13)     
1 42662U 17018A   24288.20466016 -.00000354  00000+0  00000+0 0  9997
2 42662   0.0541  85.4729 0007868 146.0776 335.9240  1.00273439 27607
KOREASAT 7              
1 42691U 17023A   24288.47202198 -.00000364  00000+0  00000+0 0  9994
2 42691   0.0357  33.0331 0002005 190.1345  86.1861  1.00272202 27254
SGDC                    
1 42692U 17023B   24288.14350707 -.00000251  00000+0  00000+0 0  9994
2 42692   0.0160 127.9648 0002633  85.4272 146.5914  1.00270834 27274
GSAT-9                  
1 42695U 17024A   24288.56716104 -.00000289  00000+0  00000+0 0  9992
2 42695   0.0458  99.4985 0002403  98.1487 127.4970  1.00271085 27187
INMARSAT 5-F4           
1 42698U 17025A   24288.13799253  .00000073  00000+0  00000+0 0  9995
2 42698   0.0199 211.2574 0000260 356.9976 281.1143  1.00269840 27150
SES-15                  
1 42709U 17026A   24287.69301976  .00000058  00000+0  00000+0 0  9993
2 42709   0.0112  90.0752 0000428  89.4086 323.6064  1.00270049  1312
QZS-2 (MICHIBIKI-2)     
1 42738U 17028A   24288.23609263 -.00000193  00000+0  00000+0 0  9999
2 42738  40.3890 252.0467 0745088 270.7489  84.4781  1.00252742  1506
VIASAT-2                
1 42740U 17029A   24288.17922222 -.00000267  00000+0  00000+0 0  9991
2 42740   0.0138 252.2541 0000108 257.6938 227.9130  1.00270779 27063
EUTELSAT 172B           
1 42741U 17029B   24288.15576453 -.00000007  00000+0  00000+0 0  9993
2 42741   0.0106 207.8806 0000154 217.0240 186.3855  1.00271611 27604
GSAT-19                 
1 42747U 17031A   24288.48869021  .00000123  00000+0  00000+0 0  9992
2 42747   0.0755  83.7916 0005013  84.9326  78.6183  1.00269594 27017
ECHOSTAR 21             
1 42749U 17032A   24288.26438219  .00000060  00000+0  00000+0 0  9992
2 42749   2.3383 323.5039 0002662 235.2159 290.0510  1.00271582 26972
BULGARIASAT-1           
1 42801U 17038A   24288.19347062  .00000010  00000+0  00000+0 0  9999
2 42801   0.0827  89.2922 0002811 121.8428 243.6603  1.00272307 26705
HELLAS-SAT 3            
1 42814U 17040A   24288.05785035  .00000150  00000+0  00000+0 0  9992
2 42814   0.0844  45.1276 0000475  63.5950 334.2283  1.00273548 26683
GSAT-17                 
1 42815U 17040B   24288.57271817 -.00000260  00000+0  00000+0 0  9991
2 42815   0.0696  80.9362 0005874 163.5795  78.7796  1.00272399 26668
INTELSAT 35E (IS-35E)   
1 42818U 17041A   24288.18625954 -.00000240  00000+0  00000+0 0  9995
2 42818   0.0189 189.2721 0001956   9.3183 217.1916  1.00269882 26683
COSMOS 2520             
1 42907U 17046A   24288.48808205  .00000135  00000+0  00000+0 0  9996
2 42907   0.0320 112.2287 0000415 197.0913 294.9334  1.00272456 26270
TDRS 13                 
1 42915U 17047A   24288.11936164 -.00000104  00000+0  00000+0 0  9999
2 42915   3.5595 347.2391 0014067 130.7683 296.7457  1.00271526 26221
QZS-3 (MICHIBIKI-3)     
1 42917U 17048A   24288.51507748 -.00000350  00000+0  00000+0 0  9991
2 42917   0.0519 182.2631 0001720   8.3915 145.3799  1.00268050 26131
AMAZONAS 5              
1 42934U 17053A   24288.18095983 -.00000284  00000+0  00000+0 0  9998
2 42934   0.0412 312.8495 0003295 288.4019 146.1399  1.00270871 25910
ASIASAT 9               
1 42942U 17057A   24288.51507748 -.00000362  00000+0  00000+0 0  9992
2 42942   0.0112 193.4945 0002386   7.4846 130.1381  1.00268142 25738
INTELSAT 37E (IS-37E)   
1 42950U 17059A   24288.18956101 -.00000142  00000+0  00000+0 0  9993
2 42950   0.0176 257.3165 0002912 308.4808 227.7023  1.00270095 25936
BSAT-4A                 
1 42951U 17059B   24287.57136494 -.00000352  00000+0  00000+0 0  9994
2 42951   0.0932  69.5834 0000327  43.6313 224.9470  1.00269091 25669
QZS-4 (MICHIBIKI-4)     
1 42965U 17062A   24288.50639949 -.00000301  00000+0  00000+0 0  9994
2 42965  40.4578 351.2806 0751181 270.1232  84.3631  1.00268637 25691
SES-11 (ECHOSTAR 105)   
1 42967U 17063A   24288.20952376 -.00000090  00000+0  00000+0 0  9991
2 42967   0.0128 231.7616 0002544 341.5970 140.3690  1.00269308 25594
KOREASAT 5A             
1 42984U 17067A   24288.52341212 -.00000360  00000+0  00000+0 0  9990
2 42984   0.0114 202.3601 0002067  11.6772 111.0969  1.00269258 25409
ALCOMSAT 1              
1 43039U 17078A   24288.18817090 -.00000187  00000+0  00000+0 0  9995
2 43039   0.0311 232.5919 0003065 342.4315 211.1767  1.00272368 25161
SBIRS GEO-3 (USA 282)   
1 43162U 18009A   24288.53799278  .00000123  00000+0  00000+0 0  9992
2 43162   2.2414 340.6590 0002060 227.5665 209.6427  1.00271605 24726
AL YAH 3                
1 43174U 18012A   24288.18912659 -.00000157  00000+0  00000+0 0  9998
2 43174   0.0456  79.0885 0002292 150.7725 201.3593  1.00272374 24718
SES-14                  
1 43175U 18012B   24287.96914546 -.00000280  00000+0  00000+0 0  9998
2 43175   0.0213 296.2160 0001176 251.7764 136.4431  1.00271646   897
GOES 17                 
1 43226U 18022A   24288.17235868 -.00000092  00000+0  00000+0 0  9994
2 43226   0.0159  99.8251 0002935 128.0638 112.6615  1.00269229 24295
HISPASAT 30W-6          
1 43228U 18023A   24287.75815785 -.00000218  00000+0  00000+0 0  9992
2 43228   0.0164  55.3022 0002605 150.1545  60.3018  1.00268263 24285
SUPERBIRD-B3            
1 43271U 18033A   24288.57896750 -.00000094  00000+0  00000+0 0  9995
2 43271   0.0186 248.7919 0001032 331.9286 173.3318  1.00272647 23934
HYLAS 4                 
1 43272U 18033B   24287.32837196 -.00000234  00000+0  00000+0 0  9993
2 43272   0.0670 269.3056 0001154 297.0895 260.7313  1.00273424 23937
IRNSS-1I                
1 43286U 18035A   24277.04912406  .00000111  00000+0  00000+0 0  9999
2 43286  29.3595  83.9242 0020531 179.7025 181.5316  1.00278960 23843
USA 283                 
1 43339U 18036A   24283.42881243 -.00000310  00000+0  00000+0 0  9994
2 43339   0.0138 224.4756 0000031  62.9143  19.5998  1.00269262 19116
COSMOS 2526             
1 43432U 18037A   24288.51507748 -.00000346  00000+0  00000+0 0  9998
2 43432   0.0411 101.5070 0000737 159.5553  75.9802  1.00274573 23845
APSTAR-6C               
1 43450U 18041A   24288.50571875 -.00000320  00000+0  00000+0 0  9996
2 43450   0.0428 345.6310 0003676 279.4817  74.4956  1.00268531 23684
BANGABANDHUSAT-1        
1 43463U 18044A   24288.19910556 -.00000365  00000+0  00000+0 0  9990
2 43463   0.0209 119.4459 0002373  89.4986   5.0906  1.00270288 23581
SES-12                  
1 43488U 18049A   24288.56716104 -.00000272  00000+0  00000+0 0  9993
2 43488   0.0067 149.3253 0002211  95.3938  78.0837  1.00270138 23293
FENGYUN 2H              
1 43491U 18050A   24288.48452071 -.00000128  00000+0  00000+0 0  9990
2 43491   1.4479  86.1193 0001695 125.9727  65.0968  1.00267568 23318
BEIDOU-2 IGSO-7         
1 43539U 18057A   24287.98052701 -.00000124  00000+0  00000+0 0  9996
2 43539  55.1471 168.3548 0078028 232.8031  88.2053  1.00275332 23002
TELSTAR 19V             
1 43562U 18059A   24288.18061230 -.00000281  00000+0  00000+0 0  9998
2 43562   0.0188 185.8173 0002718 342.7469 216.6885  1.00269490 23018
TELKOM 4 (MERAH PUTIH)  
1 43587U 18064A   24288.50059281 -.00000346  00000+0  00000+0 0  9992
2 43587   0.0251  95.2216 0001879 136.0247  80.5211  1.00270923 22757
TELSTAR 18V             
1 43611U 18069A   24288.51786094 -.00000296  00000+0  00000+0 0  9999
2 43611   0.0212 208.6295 0002260 353.2701 146.0728  1.00267529 22504
